OBJECT_NAME,OBJECT_ID,EPOCH,MEAN_MOTION,ECCENTRICITY,INCLINATION,RA_OF_ASC_NODE,ARG_OF_PERICENTER,MEAN_ANOMALY,EPHEMERIS_TYPE,CLASSIFICATION_TYPE,NORAD_CAT_ID,ELEMENT_SET_NO,REV_AT_EPOCH,BSTAR,MEAN_MOTION_DOT,MEAN_MOTION_DDOT
TDRS 13,2017-047A,2026-07-11T10:04:55.864992,1.00271496,.0014752,3.4581,3.3106,111.2203,314.6254,0,U,42915,999,3259,0,-.95E-6,0
QZS-3 (MICHIBIKI-3),2017-048A,2026-07-11T13:09:01.461312,1.00273919,.0002501,0.0714,217.6952,267.3883,128.6444,0,U,42917,999,3250,0,-.342E-5,0
AMAZONAS 5,2017-053A,2026-07-09T13:21:48.296736,1.00271348,.00011663,0.0333,322.5996,111.8422,352.5077,0,U,42934,999,3226,0,-.27E-5,0
ASIASAT 9,2017-057A,2026-07-11T13:11:55.241088,1.00266218,.000236,0.0486,69.1273,32.5039,147.9728,0,U,42942,999,3210,0,0,0
INTELSAT 37E (IS-37E),2017-059A,2026-07-11T10:03:03.544128,1.00270619,.0002493,0.0155,54.3841,63.4317,304.2755,0,U,42950,999,3230,0,-.135E-5,0
BSAT-4A,2017-059B,2026-07-11T12:23:38.821920,1.00269790,.0003286,0.0339,13.8183,66.8658,144.4789,0,U,42951,999,3204,0,-.344E-5,0
QZS-4 (MICHIBIKI-4),2017-062A,2026-07-11T07:03:38.773728,1.00291125,.0747464,40.0943,343.1792,268.4828,282.3291,0,U,42965,999,3204,0,-.323E-5,0
SES-11 (ECHOSTAR 105),2017-063A,2026-07-11T11:20:54.499200,1.00272938,.0002714,0.0460,289.4181,197.0898,228.1611,0,U,42967,999,3196,0,-.84E-6,0
KOREASAT 5A,2017-067A,2026-07-11T12:23:03.492096,1.00271785,.0000711,0.0108,10.9558,104.1553,113.2259,0,U,42984,999,3177,0,-.352E-5,0
ALCOMSAT 1,2017-078A,2026-07-11T11:43:29.834400,1.00271046,.0002137,0.0361,88.9059,26.0794,325.4978,0,U,43039,999,3153,0,-.18E-5,0
SBIRS GEO-3 (USA 282),2018-009A,2026-07-11T12:20:38.700384,1.00272390,.0001744,2.2013,13.2010,98.0510,203.9375,0,U,43162,999,3108,0,.132E-5,0
AL YAH 3,2018-012A,2026-07-11T10:02:26.105280,1.00271078,.0003511,1.6115,82.8159,27.9755,309.0377,0,U,43174,999,3108,0,-.151E-5,0
SES-14,2018-012B,2026-07-11T11:37:07.942944,1.00270302,.0000796,0.0123,22.7705,89.9837,303.4160,0,U,43175,999,726,0,-.273E-5,0
GOES 17,2018-022A,2026-07-11T11:25:16.578912,1.00270706,.0000613,0.9965,85.3123,83.3466,202.5465,0,U,43226,999,3066,0,-.178E-5,0
HISPASAT 30W-6,2018-023A,2026-07-11T09:59:33.878976,1.00273462,.0005141,0.0400,45.4229,43.4750,320.3421,0,U,43228,999,3064,0,-.21E-5,0
SUPERBIRD-B3,2018-033A,2026-07-11T10:58:38.756064,1.00270628,.0000985,0.0148,347.5663,133.4996,134.9746,0,U,43271,999,3030,0,-.86E-6,0
HYLAS 4,2018-033B,2026-07-11T11:41:15.047808,1.00268840,.0000628,0.0148,309.0789,188.3687,293.7583,0,U,43272,999,3030,0,-.228E-5,0
IRNSS-1I,2018-035A,2026-07-06T20:05:50.528832,1.00279237,.00180874,28.7973,73.8917,180.4002,27.0525,0,U,43286,999,3027,0,.79E-6,0
USA 283,2018-036A,2026-07-09T10:52:04.238976,1.00270107,.0000871,0.0041,71.7274,148.0481,4.7270,0,U,43339,999,2551,0,-.304E-5,0
COSMOS 2526,2018-037A,2026-07-11T12:27:18.086112,1.00266361,.0000701,0.0317,93.2512,141.8158,9.2347,0,U,43432,999,3020,0,-.339E-5,0
APSTAR-6C,2018-041A,2026-07-11T12:29:02.918688,1.00270201,.0000557,0.0235,348.6658,297.2919,324.7406,0,U,43450,999,3005,0,-.312E-5,0
BANGABANDHUSAT-1,2018-044A,2026-07-11T12:24:48.326400,1.00271999,.0001657,0.0130,91.8641,30.6420,112.2127,0,U,43463,999,2995,0,-.357E-5,0
SES-12,2018-049A,2026-07-11T11:48:38.621952,1.00269414,.0000904,0.0116,5.3970,246.1632,309.9975,0,U,43488,999,2966,0,-.263E-5,0
FENGYUN 2H,2018-050A,2026-07-11T12:13:26.961312,1.00267567,.0002242,3.0900,78.7923,131.1998,341.9743,0,U,43491,999,2968,0,-.125E-5,0
BEIDOU-2 IGSO-7,2018-057A,2026-07-01T21:23:21.693984,1.00246939,.01049468,55.1981,162.9292,237.8611,308.6338,0,U,43539,999,2927,0,-.33E-6,0
TELSTAR 19V,2018-059A,2026-07-11T11:32:53.349792,1.00271047,.0002868,0.0360,172.1278,318.4493,269.0425,0,U,43562,999,2938,0,-.274E-5,0
TELKOM 4 (MERAH PUTIH),2018-064A,2026-07-11T12:23:38.821920,1.00270775,.0001003,0.0134,74.3931,40.4371,108.5076,0,U,43587,999,2912,0,-.338E-5,0
TELSTAR 18V,2018-069A,2026-07-11T12:30:10.309824,1.00268432,.0001695,0.0141,334.5233,143.0748,137.3678,0,U,43611,999,2888,0,-.289E-5,0
AZERSPACE 2 (IS-38),2018-074A,2026-07-11T05:13:02.870976,1.00270656,.0001235,0.0273,38.7820,92.2329,281.4917,0,U,43632,999,2868,0,0,0
HORIZONS-3E,2018-074B,2026-07-11T10:56:22.197408,1.00269733,.0000925,0.0403,220.7856,54.1940,347.4770,0,U,43633,999,2858,0,-.25E-6,0
AEHF-4 (USA 288),2018-079A,2026-07-11T11:31:38.470368,1.00277592,.0058569,1.4384,5.9638,354.1809,34.5243,0,U,43651,999,2854,0,-.27E-5,0
BEIDOU-3 G1,2018-085A,2026-07-11T12:49:19.629408,1.00272785,.00081,2.9262,96.7295,355.4681,189.5230,0,U,43683,999,2830,0,-.106E-5,0
