TDRS 13                 
1 42915U 17047A   26192.42009103 -.00000095  00000+0  00000+0 0  9992
2 42915   3.4581   3.3106 0014752 111.2203 314.6254  1.00271496 32590
QZS-3 (MICHIBIKI-3)     
1 42917U 17048A   26192.54793358 -.00000342  00000+0  00000+0 0  9995
2 42917   0.0714 217.6952 0002501 267.3883 128.6444  1.00273919 32505
AMAZONAS 5              
1 42934U 17053A   26190.55680899 -.00000270  00000+0  00000+0 0  9994
2 42934   0.0333 322.5996 0001166 111.8422 352.5077  1.00271348 32260
ASIASAT 9               
1 42942U 17057A   26192.54994492  .00000000  00000+0  00000+0 0  9995
2 42942   0.0486  69.1273 0002360  32.5039 147.9728  1.00266218 32102
INTELSAT 37E (IS-37E)   
1 42950U 17059A   26192.41879102 -.00000135  00000+0  00000+0 0  9992
2 42950   0.0155  54.3841 0002493  63.4317 304.2755  1.00270619 32300
BSAT-4A                 
1 42951U 17059B   26192.51642155 -.00000344  00000+0  00000+0 0  9992
2 42951   0.0339  13.8183 0003286  66.8658 144.4789  1.00269790 32040
QZS-4 (MICHIBIKI-4)     
1 42965U 17062A   26192.29419877 -.00000323  00000+0  00000+0 0  9996
2 42965  40.0943 343.1792 0747464 268.4828 282.3291  1.00291125 32044
SES-11 (ECHOSTAR 105)   
1 42967U 17063A   26192.47285300 -.00000084  00000+0  00000+0 0  9995
2 42967   0.0460 289.4181 0002714 197.0898 228.1611  1.00272938 31961
KOREASAT 5A             
1 42984U 17067A   26192.51601264 -.00000352  00000+0  00000+0 0  9992
2 42984   0.0108  10.9558 0000711 104.1553 113.2259  1.00271785 31776
ALCOMSAT 1              
1 43039U 17078A   26192.48853975 -.00000180  00000+0  00000+0 0  9999
2 43039   0.0361  88.9059 0002137  26.0794 325.4978  1.00271046 31532
SBIRS GEO-3 (USA 282)   
1 43162U 18009A   26192.51433681  .00000132  00000+0  00000+0 0  9999
2 43162   2.2013  13.2010 0001744  98.0510 203.9375  1.00272390 31087
AL YAH 3                
1 43174U 18012A   26192.41835770 -.00000151  00000+0  00000+0 0  9992
2 43174   1.6115  82.8159 0003511  27.9755 309.0377  1.00271078 31080
SES-14                  
1 43175U 18012B   26192.48411971 -.00000273  00000+0  00000+0 0  9998
2 43175   0.0123  22.7705 0000796  89.9837 303.4160  1.00270302  7264
GOES 17                 
1 43226U 18022A   26192.47588633 -.00000178  00000+0  00000+0 0  9999
2 43226   0.9965  85.3123 0000613  83.3466 202.5465  1.00270706 30662
HISPASAT 30W-6          
1 43228U 18023A   26192.41636434 -.00000210  00000+0  00000+0 0  9996
2 43228   0.0400  45.4229 0005141  43.4750 320.3421  1.00273462 30648
SUPERBIRD-B3            
1 43271U 18033A   26192.45739301 -.00000086  00000+0  00000+0 0  9997
2 43271   0.0148 347.5663 0000985 133.4996 134.9746  1.00270628 30309
HYLAS 4                 
1 43272U 18033B   26192.48697972 -.00000228  00000+0  00000+0 0  9996
2 43272   0.0148 309.0789 0000628 188.3687 293.7583  1.00268840 30308
IRNSS-1I                
1 43286U 18035A   26187.83739038  .00000079  00000+0  00000+0 0  9999
2 43286  28.7973  73.8917 0018087 180.4002  27.0525  1.00279237 30279
USA 283                 
1 43339U 18036A   26190.45282684 -.00000304  00000+0  00000+0 0  9993
2 43339   0.0041  71.7274 0000871 148.0481   4.7270  1.00270107 25510
COSMOS 2526             
1 43432U 18037A   26192.51895933 -.00000339  00000+0  00000+0 0  9992
2 43432   0.0317  93.2512 0000701 141.8158   9.2347  1.00266361 30202
APSTAR-6C               
1 43450U 18041A   26192.52017267 -.00000312  00000+0  00000+0 0  9995
2 43450   0.0235 348.6658 0000557 297.2919 324.7406  1.00270201 30051
BANGABANDHUSAT-1        
1 43463U 18044A   26192.51722600 -.00000357  00000+0  00000+0 0  9994
2 43463   0.0130  91.8641 0001657  30.6420 112.2127  1.00271999 29958
SES-12                  
1 43488U 18049A   26192.49211368 -.00000263  00000+0  00000+0 0  9993
2 43488   0.0116   5.3970 0000904 246.1632 309.9975  1.00269414 29660
FENGYUN 2H              
1 43491U 18050A   26192.50933983 -.00000125  00000+0  00000+0 0  9992
2 43491   3.0900  78.7923 0002242 131.1998 341.9743  1.00267567 29683
BEIDOU-2 IGSO-7         
1 43539U 18057A   26182.89122331 -.00000033  00000+0  00000+0 0  9998
2 43539  55.1981 162.9292 0104946 237.8611 308.6338  1.00246939 29273
TELSTAR 19V             
1 43562U 18059A   26192.48117303 -.00000274  00000+0  00000+0 0  9992
2 43562   0.0360 172.1278 0002868 318.4493 269.0425  1.00271047 29387
TELKOM 4 (MERAH PUTIH)  
1 43587U 18064A   26192.51642155 -.00000338  00000+0  00000+0 0  9998
2 43587   0.0134  74.3931 0001003  40.4371 108.5076  1.00270775 29127
TELSTAR 18V             
1 43611U 18069A   26192.52095266 -.00000289  00000+0  00000+0 0  9992
2 43611   0.0141 334.5233 0001695 143.0748 137.3678  1.00268432 28881
AZERSPACE 2 (IS-38)     
1 43632U 18074A   26192.21739434  .00000000  00000+0  00000+0 0  9999
2 43632   0.0273  38.7820 0001235  92.2329 281.4917  1.00270656 28681
HORIZONS-3E             
1 43633U 18074B   26192.45581247 -.00000025  00000+0  00000+0 0  9991
2 43633   0.0403 220.7856 0000925  54.1940 347.4770  1.00269733 28583
AEHF-4 (USA 288)        
1 43651U 18079A   26192.48030637 -.00000270  00000+0  00000+0 0  9993
2 43651   1.4384   5.9638 0058569 354.1809  34.5243  1.00277592 28548
BEIDOU-3 G1             
1 43683U 18085A   26192.53425497 -.00000106  00000+0  00000+0 0  9991
2 43683   2.9262  96.7295 0008100 355.4681 189.5230  1.00272785 28309
